start=new Date('2022-09-01T00:00:00.000Z').valueOf();
sats=[{"BSTAR":"0.00116790000000","TLE_LINE2":"2 52455  53.2176  81.1695 0001476  68.8257 296.0705 15.08813516  1302","LAUNCH_DATE":"2022-05-06","INCLINATION":"53.2176","MEAN_MOTION":"15.08813516","CENTER_NAME":"EARTH","NORAD_CAT_ID":"52455","MEAN_MOTION_DDOT":"0.0000000000000","REF_FRAME":"TEME","TLE_LINE1":"1 52455U 22049E   22243.91667824  .00018334  00000-0  11679-2 0  9999","EPHEMERIS_TYPE":"0","RCS_SIZE":"LARGE","EPOCH":"2022-08-31T22:00:00.999936","GP_ID":"211427357","MEAN_ELEMENT_THEORY":"SGP4","FILE":"3552761","RA_OF_ASC_NODE":"81.1695","APOAPSIS":"540.847","SEMIMAJOR_AXIS":"6917.961","ARG_OF_PERICENTER":"68.8257","OBJECT_ID":"2022-049E","PERIOD":"95.439","OBJECT_TYPE":"PAYLOAD","SITE":"AFETR","CLASSIFICATION_TYPE":"U","MEAN_ANOMALY":"296.0705","ECCENTRICITY":"0.00014760","REV_AT_EPOCH":"130","ELEMENT_SET_NO":"999","OBJECT_NAME":"STARLINK-3890","PERIAPSIS":"538.805","DECAY_DATE":null,"TIME_SYSTEM":"UTC","COUNTRY_CODE":"US","MEAN_MOTION_DOT":"0.00018334"},{"BSTAR":"0.00115200000000","LAUNCH_DATE":"2022-05-06","INCLINATION":"53.2187","TLE_LINE2":"2 52456  53.2187  81.1723 0001778  64.6604 320.2084 15.08817891  1302","CENTER_NAME":"EARTH","NORAD_CAT_ID":"52456","MEAN_MOTION":"15.08817891","RCS_SIZE":"MEDIUM","EPHEMERIS_TYPE":"0","EPOCH":"2022-08-31T22:00:00.999936","TLE_LINE1":"1 52456U 22049F   22243.91667824  .00018083  00000-0  11520-2 0  9996","MEAN_MOTION_DDOT":"0.0000000000000","REF_FRAME":"TEME","MEAN_ELEMENT_THEORY":"SGP4","GP_ID":"211427644","FILE":"3552761","RA_OF_ASC_NODE":"81.1723","APOAPSIS":"541.043","SEMIMAJOR_AXIS":"6917.948","ARG_OF_PERICENTER":"64.6604","OBJECT_ID":"2022-049F","PERIOD":"95.439","OBJECT_TYPE":"PAYLOAD","CLASSIFICATION_TYPE":"U","SITE":"AFETR","ECCENTRICITY":"0.00017780","ELEMENT_SET_NO":"999","REV_AT_EPOCH":"130","MEAN_ANOMALY":"320.2084","TIME_SYSTEM":"UTC","DECAY_DATE":null,"OBJECT_NAME":"STARLINK-3896","PERIAPSIS":"538.583","MEAN_MOTION_DOT":"0.00018083","COUNTRY_CODE":"US"},{"MEAN_ELEMENT_THEORY":"SGP4","GP_ID":"211426797","FILE":"3552761","RA_OF_ASC_NODE":"81.1701","BSTAR":"0.00116500000000","LAUNCH_DATE":"2022-05-06","INCLINATION":"53.2179","TLE_LINE2":"2 52457  53.2179  81.1701 0001520  76.7413 328.1445 15.08830420  1308","CENTER_NAME":"EARTH","NORAD_CAT_ID":"52457","MEAN_MOTION":"15.08830420","TLE_LINE1":"1 52457U 22049G   22243.91667824  .00018297  00000-0  11650-2 0  9998","RCS_SIZE":"LARGE","EPOCH":"2022-08-31T22:00:00.999936","EPHEMERIS_TYPE":"0","MEAN_MOTION_DDOT":"0.0000000000000","REF_FRAME":"TEME","CLASSIFICATION_TYPE":"U","SITE":"AFETR","REV_AT_EPOCH":"130","ECCENTRICITY":"0.00015200","ELEMENT_SET_NO":"999","MEAN_ANOMALY":"328.1445","TIME_SYSTEM":"UTC","OBJECT_NAME":"STARLINK-3899","PERIAPSIS":"538.723","DECAY_DATE":null,"COUNTRY_CODE":"US","MEAN_MOTION_DOT":"0.00018297","APOAPSIS":"540.826","SEMIMAJOR_AXIS":"6917.910","ARG_OF_PERICENTER":"76.7413","OBJECT_ID":"2022-049G","PERIOD":"95.438","OBJECT_TYPE":"PAYLOAD"},{"CENTER_NAME":"EARTH","NORAD_CAT_ID":"52458","MEAN_MOTION":"15.08834168","EPOCH":"2022-08-31T22:00:00.999936","RCS_SIZE":"LARGE","EPHEMERIS_TYPE":"0","TLE_LINE1":"1 52458U 22049H   22243.91667824  .00018811  00000-0  11970-2 0  9996","MEAN_MOTION_DDOT":"0.0000000000000","REF_FRAME":"TEME","BSTAR":"0.00119700000000","LAUNCH_DATE":"2022-05-06","INCLINATION":"53.2174","TLE_LINE2":"2 52458  53.2174  81.1688 0001953  55.6270   9.2666 15.08834168 18162","FILE":"3552713","RA_OF_ASC_NODE":"81.1688","MEAN_ELEMENT_THEORY":"SGP4","GP_ID":"211401045","ARG_OF_PERICENTER":"55.6270","OBJECT_ID":"2022-049H","PERIOD":"95.438","OBJECT_TYPE":"PAYLOAD","APOAPSIS":"541.114","SEMIMAJOR_AXIS":"6917.898","TIME_SYSTEM":"UTC","DECAY_DATE":null,"OBJECT_NAME":"STARLINK-3898","PERIAPSIS":"538.412","MEAN_MOTION_DOT":"0.00018811","COUNTRY_CODE":"US","CLASSIFICATION_TYPE":"U","SITE":"AFETR","ELEMENT_SET_NO":"999","ECCENTRICITY":"0.00019530","REV_AT_EPOCH":"1816","MEAN_ANOMALY":"9.2666"},{"COUNTRY_CODE":"US","MEAN_MOTION_DOT":"0.00031782","PERIAPSIS":"538.420","OBJECT_NAME":"STARLINK-3856","DECAY_DATE":null,"TIME_SYSTEM":"UTC","MEAN_ANOMALY":"79.4095","REV_AT_EPOCH":"130","ECCENTRICITY":"0.00020240","ELEMENT_SET_NO":"999","CLASSIFICATION_TYPE":"U","SITE":"AFETR","PERIOD":"95.439","OBJECT_TYPE":"PAYLOAD","OBJECT_ID":"2022-049J","ARG_OF_PERICENTER":"65.6642","SEMIMAJOR_AXIS":"6917.955","APOAPSIS":"541.220","RA_OF_ASC_NODE":"71.1810","FILE":"3552761","GP_ID":"211426940","MEAN_ELEMENT_THEORY":"SGP4","MEAN_MOTION_DDOT":"0.0000000000000","REF_FRAME":"TEME","TLE_LINE1":"1 52459U 22049J   22243.91667824  .00031782  00000-0  20073-2 0  9993","RCS_SIZE":"LARGE","EPHEMERIS_TYPE":"0","EPOCH":"2022-08-31T22:00:00.999936","MEAN_MOTION":"15.08815688","NORAD_CAT_ID":"52459","CENTER_NAME":"EARTH","TLE_LINE2":"2 52459  53.2142  71.1810 0002024  65.6642  79.4095 15.08815688  1307","LAUNCH_DATE":"2022-05-06","INCLINATION":"53.2142","BSTAR":"0.00200730000000"},{"BSTAR":"0.00207070000000","TLE_LINE2":"2 52460  53.2154  71.1818 0001460  67.3472  92.5371 15.08819529 18290","LAUNCH_DATE":"2022-05-06","INCLINATION":"53.2154","MEAN_MOTION":"15.08819529","CENTER_NAME":"EARTH","NORAD_CAT_ID":"52460","REF_FRAME":"TEME","MEAN_MOTION_DDOT":"0.0000000000000","RCS_SIZE":"LARGE","EPHEMERIS_TYPE":"0","EPOCH":"2022-08-31T22:00:00.999936","TLE_LINE1":"1 52460U 22049K   22243.91667824  .00032802  00000-0  20707-2 0  9993","GP_ID":"211401050","MEAN_ELEMENT_THEORY":"SGP4","FILE":"3552713","RA_OF_ASC_NODE":"71.1818","APOAPSIS":"540.818","SEMIMAJOR_AXIS":"6917.943","OBJECT_ID":"2022-049K","ARG_OF_PERICENTER":"67.3472","PERIOD":"95.439","OBJECT_TYPE":"PAYLOAD","SITE":"AFETR","CLASSIFICATION_TYPE":"U","MEAN_ANOMALY":"92.5371","REV_AT_EPOCH":"1829","ELEMENT_SET_NO":"999","ECCENTRICITY":"0.00014600","DECAY_DATE":null,"PERIAPSIS":"538.798","OBJECT_NAME":"STARLINK-3865","TIME_SYSTEM":"UTC","MEAN_MOTION_DOT":"0.00032802","COUNTRY_CODE":"US"},{"OBJECT_NAME":"STARLINK-3900","PERIAPSIS":"538.527","DECAY_DATE":null,"TIME_SYSTEM":"UTC","COUNTRY_CODE":"US","MEAN_MOTION_DOT":"0.00047327","SITE":"AFETR","CLASSIFICATION_TYPE":"U","MEAN_ANOMALY":"104.0907","ECCENTRICITY":"0.00019220","ELEMENT_SET_NO":"999","REV_AT_EPOCH":"1843","OBJECT_ID":"2022-049L","ARG_OF_PERICENTER":"55.9688","OBJECT_TYPE":"PAYLOAD","PERIOD":"95.440","APOAPSIS":"541.187","SEMIMAJOR_AXIS":"6917.992","FILE":"3552713","RA_OF_ASC_NODE":"61.1790","GP_ID":"211401551","MEAN_ELEMENT_THEORY":"SGP4","MEAN_MOTION":"15.08803476","NORAD_CAT_ID":"52461","CENTER_NAME":"EARTH","REF_FRAME":"TEME","MEAN_MOTION_DDOT":"0.0000000000000","TLE_LINE1":"1 52461U 22049L   22243.91667824  .00047327  00000-0  29748-2 0  9996","RCS_SIZE":"MEDIUM","EPHEMERIS_TYPE":"0","EPOCH":"2022-08-31T22:00:00.999936","BSTAR":"0.00297480000000","TLE_LINE2":"2 52461  53.2140  61.1790 0001922  55.9688 104.0907 15.08803476 18433","LAUNCH_DATE":"2022-05-06","INCLINATION":"53.2140"},{"OBJECT_NAME":"STARLINK-3903","PERIAPSIS":"538.635","DECAY_DATE":null,"TIME_SYSTEM":"UTC","COUNTRY_CODE":"US","MEAN_MOTION_DOT":"0.00034895","CLASSIFICATION_TYPE":"U","SITE":"AFETR","MEAN_ANOMALY":"122.7930","REV_AT_EPOCH":"130","ECCENTRICITY":"0.00017390","ELEMENT_SET_NO":"999","OBJECT_ID":"2022-049M","ARG_OF_PERICENTER":"62.2844","OBJECT_TYPE":"PAYLOAD","PERIOD":"95.439","APOAPSIS":"541.042","SEMIMAJOR_AXIS":"6917.973","FILE":"3552761","RA_OF_ASC_NODE":"71.1761","GP_ID":"211427083","MEAN_ELEMENT_THEORY":"SGP4","MEAN_MOTION":"15.08809543","NORAD_CAT_ID":"52462","CENTER_NAME":"EARTH","MEAN_MOTION_DDOT":"0.0000000000000","REF_FRAME":"TEME","TLE_LINE1":"1 52462U 22049M   22243.91667824  .00034895  00000-0  22016-2 0  9994","RCS_SIZE":"LARGE","EPHEMERIS_TYPE":"0","EPOCH":"2022-08-31T22:00:00.999936","BSTAR":"0.00220160000000","TLE_LINE2":"2 52462  53.2161  71.1761 0001739  62.2844 122.7930 15.08809543  1309","INCLINATION":"53.2161","LAUNCH_DATE":"2022-05-06"},{"INCLINATION":"53.2137","LAUNCH_DATE":"2022-05-06","TLE_LINE2":"2 52463  53.2137  61.1789 0001640  59.1183 120.9322 15.08819815  1302","BSTAR":"0.00284970000000","TLE_LINE1":"1 52463U 22049N   22243.91667824  .00045332  00000-0  28497-2 0  9992","RCS_SIZE":"MEDIUM","EPOCH":"2022-08-31T22:00:00.999936","EPHEMERIS_TYPE":"0","MEAN_MOTION_DDOT":"0.0000000000000","REF_FRAME":"TEME","CENTER_NAME":"EARTH","NORAD_CAT_ID":"52463","MEAN_MOTION":"15.08819815","MEAN_ELEMENT_THEORY":"SGP4","GP_ID":"211427358","RA_OF_ASC_NODE":"61.1789","FILE":"3552761","SEMIMAJOR_AXIS":"6917.942","APOAPSIS":"540.942","OBJECT_TYPE":"PAYLOAD","PERIOD":"95.439","ARG_OF_PERICENTER":"59.1183","OBJECT_ID":"2022-049N","ELEMENT_SET_NO":"999","ECCENTRICITY":"0.00016400","REV_AT_EPOCH":"130","MEAN_ANOMALY":"120.9322","SITE":"AFETR","CLASSIFICATION_TYPE":"U","COUNTRY_CODE":"US","MEAN_MOTION_DOT":"0.00045332","TIME_SYSTEM":"UTC","PERIAPSIS":"538.673","OBJECT_NAME":"STARLINK-3885","DECAY_DATE":null},{"FILE":"3552713","RA_OF_ASC_NODE":"71.1784","GP_ID":"211401546","MEAN_ELEMENT_THEORY":"SGP4","MEAN_MOTION":"15.08820574","NORAD_CAT_ID":"52464","CENTER_NAME":"EARTH","MEAN_MOTION_DDOT":"0.0000000000000","REF_FRAME":"TEME","EPOCH":"2022-08-31T22:00:00.999936","RCS_SIZE":"LARGE","EPHEMERIS_TYPE":"0","TLE_LINE1":"1 52464U 22049P   22243.91667824  .00033226  00000-0  20970-2 0  9990","BSTAR":"0.00209700000000","TLE_LINE2":"2 52464  53.2161  71.1784 0001701  63.5532 101.5434 15.08820574 18290","LAUNCH_DATE":"2022-05-06","INCLINATION":"53.2161","DECAY_DATE":null,"PERIAPSIS":"538.628","OBJECT_NAME":"STARLINK-3904","TIME_SYSTEM":"UTC","MEAN_MOTION_DOT":"0.00033226","COUNTRY_CODE":"US","SITE":"AFETR","CLASSIFICATION_TYPE":"U","MEAN_ANOMALY":"101.5434","ELEMENT_SET_NO":"999","ECCENTRICITY":"0.00017010","REV_AT_EPOCH":"1829","OBJECT_ID":"2022-049P","ARG_OF_PERICENTER":"63.5532","OBJECT_TYPE":"PAYLOAD","PERIOD":"95.439","APOAPSIS":"540.982","SEMIMAJOR_AXIS":"6917.940"}];
